{
  "type": "FeatureCollection",
  "features": [
    {
      "type": "Feature",
      "properties": {
        "norad_id": 41581,
        "name": "INTELSAT 31 (IS-31)",
        "group": "intelsat",
        "lat": -0.026331166536368376,
        "lon": -130.73771270352034,
        "alt_km": 35778.90340008168,
        "timestamp": "2025-12-18T15:47:10.888283+00:00",
        "meta_object_name": "INTELSAT 31 (IS-31)",
        "meta_object_id": "2016-035A",
        "meta_epoch": "2025-12-17T14:35:00.320640",
        "meta_mean_motion": 1.00272697,
        "meta_eccentricity": 0.00018355,
        "meta_inclination": 0.0215,
        "meta_ra_of_asc_node": 273.4234,
        "meta_arg_of_pericenter": 290.0377,
        "meta_mean_anomaly": 6.7212,
        "meta_ephemeris_type": 0,
        "meta_classification_type": "U",
        "meta_norad_cat_id": 41581,
        "meta_element_set_no": 999,
        "meta_rev_at_epoch": 3486,
        "meta_bstar": 0,
        "meta_mean_motion_dot": -1.26e-06,
        "meta_mean_motion_ddot": 0,
        "tle_line1": "1 41581U 16035A   25351.60764260 -.00000126  00000+0  00000+0 0  9999",
        "tle_line2": "2 41581   0.0215 273.4234 0001835 290.0377   6.7212  1.00272697 34862"
      },
      "geometry": {
        "type": "Point",
        "coordinates": [
          -130.73771270352034,
          -0.026331166536368376
        ]
      }
    },
    {
      "type": "Feature",
      "properties": {
        "norad_id": 41747,
        "name": "INTELSAT 36 (IS-36)",
        "group": "intelsat",
        "lat": 0.020334047020294566,
        "lon": 32.794362744522154,
        "alt_km": 35783.60391869457,
        "timestamp": "2025-12-18T15:47:10.888295+00:00",
        "meta_object_name": "INTELSAT 36 (IS-36)",
        "meta_object_id": "2016-053A",
        "meta_epoch": "2025-12-18T01:38:09.819744",
        "meta_mean_motion": 1.00271251,
        "meta_eccentricity": 0.00012427,
        "meta_inclination": 0.013,
        "meta_ra_of_asc_node": 10.5767,
        "meta_arg_of_pericenter": 322.3772,
        "meta_mean_anomaly": 207.0051,
        "meta_ephemeris_type": 0,
        "meta_classification_type": "U",
        "meta_norad_cat_id": 41747,
        "meta_element_set_no": 999,
        "meta_rev_at_epoch": 3413,
        "meta_bstar": 0,
        "meta_mean_motion_dot": 1e-08,
        "meta_mean_motion_ddot": 0,
        "tle_line1": "1 41747U 16053A   25352.06816921  .00000001  00000+0  00000+0 0  9997",
        "tle_line2": "2 41747   0.0130  10.5767 0001242 322.3772 207.0051  1.00271251 34135"
      },
      "geometry": {
        "type": "Point",
        "coordinates": [
          32.794362744522154,
          0.020334047020294566
        ]
      }
    },
    {
      "type": "Feature",
      "properties": {
        "norad_id": 41945,
        "name": "INTELSAT 32E (IS-32E)",
        "group": "intelsat",
        "lat": -0.03094036676146591,
        "lon": -78.88347559353413,
        "alt_km": 35787.52698602577,
        "timestamp": "2025-12-18T15:47:10.888307+00:00",
        "meta_object_name": "INTELSAT 32E (IS-32E)",
        "meta_object_id": "2017-007B",
        "meta_epoch": "2025-12-18T02:49:03.489600",
        "meta_mean_motion": 1.00270284,
        "meta_eccentricity": 6.537e-05,
        "meta_inclination": 0.0299,
        "meta_ra_of_asc_node": 71.5973,
        "meta_arg_of_pericenter": 319.6941,
        "meta_mean_anomaly": 54.7832,
        "meta_ephemeris_type": 0,
        "meta_classification_type": "U",
        "meta_norad_cat_id": 41945,
        "meta_element_set_no": 999,
        "meta_rev_at_epoch": 3241,
        "meta_bstar": 0,
        "meta_mean_motion_dot": -2.44e-06,
        "meta_mean_motion_ddot": 0,
        "tle_line1": "1 41945U 17007B   25352.11740150 -.00000244  00000+0  00000+0 0  9993",
        "tle_line2": "2 41945   0.0299  71.5973 0000653 319.6941  54.7832  1.00270284 32417"
      },
      "geometry": {
        "type": "Point",
        "coordinates": [
          -78.88347559353413,
          -0.03094036676146591
        ]
      }
    },
    {
      "type": "Feature",
      "properties": {
        "norad_id": 42818,
        "name": "INTELSAT 35E (IS-35E)",
        "group": "intelsat",
        "lat": -0.049055903179024515,
        "lon": -70.19169485465703,
        "alt_km": 35779.27816589891,
        "timestamp": "2025-12-18T15:47:10.888319+00:00",
        "meta_object_name": "INTELSAT 35E (IS-35E)",
        "meta_object_id": "2017-041A",
        "meta_epoch": "2025-12-18T02:51:33.251040",
        "meta_mean_motion": 1.00269881,
        "meta_eccentricity": 0.00018497,
        "meta_inclination": 0.0261,
        "meta_ra_of_asc_node": 12.1091,
        "meta_arg_of_pericenter": 258.3701,
        "meta_mean_anomaly": 184.8996,
        "meta_ephemeris_type": 0,
        "meta_classification_type": "U",
        "meta_norad_cat_id": 42818,
        "meta_element_set_no": 999,
        "meta_rev_at_epoch": 3100,
        "meta_bstar": 0,
        "meta_mean_motion_dot": 0,
        "meta_mean_motion_ddot": 0,
        "tle_line1": "1 42818U 17041A   25352.11913485  .00000000  00000+0  00000+0 0  9993",
        "tle_line2": "2 42818   0.0261  12.1091 0001849 258.3701 184.8996  1.00269881 31000"
      },
      "geometry": {
        "type": "Point",
        "coordinates": [
          -70.19169485465703,
          -0.049055903179024515
        ]
      }
    },
    {
      "type": "Feature",
      "properties": {
        "norad_id": 42950,
        "name": "INTELSAT 37E (IS-37E)",
        "group": "intelsat",
        "lat": -0.02471095010490475,
        "lon": -53.6749660521419,
        "alt_km": 35778.07884601815,
        "timestamp": "2025-12-18T15:47:10.888330+00:00",
        "meta_object_name": "INTELSAT 37E (IS-37E)",
        "meta_object_id": "2017-059A",
        "meta_epoch": "2025-12-18T03:59:38.559264",
        "meta_mean_motion": 1.00271207,
        "meta_eccentricity": 0.00029646,
        "meta_inclination": 0.0175,
        "meta_ra_of_asc_node": 336.6396,
        "meta_arg_of_pericenter": 280.2531,
        "meta_mean_anomaly": 232.0501,
        "meta_ephemeris_type": 0,
        "meta_classification_type": "U",
        "meta_norad_cat_id": 42950,
        "meta_element_set_no": 999,
        "meta_rev_at_epoch": 3025,
        "meta_bstar": 0,
        "meta_mean_motion_dot": -1.16e-06,
        "meta_mean_motion_ddot": 0,
        "tle_line1": "1 42950U 17059A   25352.16641851 -.00000116  00000+0  00000+0 0  9998",
        "tle_line2": "2 42950   0.0175 336.6396 0002964 280.2531 232.0501  1.00271207 30256"
      },
      "geometry": {
        "type": "Point",
        "coordinates": [
          -53.6749660521419,
          -0.02471095010490475
        ]
      }
    },
    {
      "type": "Feature",
      "properties": {
        "norad_id": 43632,
        "name": "AZERSPACE 2 (IS-38)",
        "group": "intelsat",
        "lat": 0.010296459572159704,
        "lon": 9.425829114126943,
        "alt_km": 35786.55788745719,
        "timestamp": "2025-12-18T15:47:10.888342+00:00",
        "meta_object_name": "AZERSPACE 2 (IS-38)",
        "meta_object_id": "2018-074A",
        "meta_epoch": "2025-12-18T04:25:38.603712",
        "meta_mean_motion": 1.00271735,
        "meta_eccentricity": 0.00011538,
        "meta_inclination": 0.0184,
        "meta_ra_of_asc_node": 1.7635,
        "meta_arg_of_pericenter": 271.6405,
        "meta_mean_anomaly": 285.169,
        "meta_ephemeris_type": 0,
        "meta_classification_type": "U",
        "meta_norad_cat_id": 43632,
        "meta_element_set_no": 999,
        "meta_rev_at_epoch": 2663,
        "meta_bstar": 0,
        "meta_mean_motion_dot": 1.61e-06,
        "meta_mean_motion_ddot": 0,
        "tle_line1": "1 43632U 18074A   25352.18447458  .00000161  00000+0  00000+0 0  9992",
        "tle_line2": "2 43632   0.0184   1.7635 0001153 271.6405 285.1690  1.00271735 26634"
      },
      "geometry": {
        "type": "Point",
        "coordinates": [
          9.425829114126943,
          0.010296459572159704
        ]
      }
    },
    {
      "type": "Feature",
      "properties": {
        "norad_id": 43633,
        "name": "HORIZONS-3E",
        "group": "intelsat",
        "lat": -0.017669708650263898,
        "lon": 133.28210922751842,
        "alt_km": 35788.883213932786,
        "timestamp": "2025-12-18T15:47:10.888354+00:00",
        "meta_object_name": "HORIZONS-3E",
        "meta_object_id": "2018-074B",
        "meta_epoch": "2025-12-17T20:58:44.087232",
        "meta_mean_motion": 1.00271852,
        "meta_eccentricity": 7.224e-05,
        "meta_inclination": 0.0529,
        "meta_ra_of_asc_node": 183.9113,
        "meta_arg_of_pericenter": 108.1124,
        "meta_mean_anomaly": 278.3884,
        "meta_ephemeris_type": 0,
        "meta_classification_type": "U",
        "meta_norad_cat_id": 43633,
        "meta_element_set_no": 999,
        "meta_rev_at_epoch": 2652,
        "meta_bstar": 0,
        "meta_mean_motion_dot": -5e-08,
        "meta_mean_motion_ddot": 0,
        "tle_line1": "1 43633U 18074B   25351.87412138 -.00000005  00000+0  00000+0 0  9993",
        "tle_line2": "2 43633   0.0529 183.9113 0000722 108.1124 278.3884  1.00271852 26522"
      },
      "geometry": {
        "type": "Point",
        "coordinates": [
          133.28210922751842,
          -0.017669708650263898
        ]
      }
    }
  ]
}